[{"OBJECT_NAME":"STARLINK-33778","OBJECT_ID":"2025-094P","EPOCH":"2026-03-09T21:36:57.111264","MEAN_MOTION":15.00368707,"ECCENTRICITY":0.00046794,"INCLINATION":70.0014,"RA_OF_ASC_NODE":233.9626,"ARG_OF_PERICENTER":283.7063,"MEAN_ANOMALY":76.3576,"EPHEMERIS_TYPE":0,"CLASSIFICATION_TYPE":"U","NORAD_CAT_ID":63877,"ELEMENT_SET_NO":999,"REV_AT_EPOCH":4723,"BSTAR":0.077170439,"MEAN_MOTION_DOT":0.01050264,"MEAN_MOTION_DDOT":0},{"OBJECT_NAME":"IMS-1","OBJECT_ID":"2008-021D","EPOCH":"2026-03-09T22:27:26.707392","MEAN_MOTION":15.03517095,"ECCENTRICITY":0.00068607,"INCLINATION":97.9418,"RA_OF_ASC_NODE":52.6663,"ARG_OF_PERICENTER":75.5168,"MEAN_ANOMALY":284.6817,"EPHEMERIS_TYPE":0,"CLASSIFICATION_TYPE":"U","NORAD_CAT_ID":32786,"ELEMENT_SET_NO":999,"REV_AT_EPOCH":96828,"BSTAR":0.00046947389,"MEAN_MOTION_DOT":6.344e-5,"MEAN_MOTION_DDOT":0}]
